{
  "type": "FeatureCollection",
  "features": [
    {
      "type": "Feature",
      "properties": {
        "norad_id": 31183,
        "name": "FENGYUN 1C DEB",
        "group": "fengyun-1c-debris",
        "lat": -63.803992677722576,
        "lon": 4.898500529502072,
        "alt_km": 752.7363923345165,
        "timestamp": "2025-12-27T05:29:39.483805+00:00",
        "meta_object_name": "FENGYUN 1C DEB",
        "meta_object_id": "1999-025BJM",
        "meta_epoch": "2025-12-26T10:37:27.297120",
        "meta_mean_motion": 14.50562406,
        "meta_eccentricity": 0.0047805,
        "meta_inclination": 99.0384,
        "meta_ra_of_asc_node": 345.1775,
        "meta_arg_of_pericenter": 67.2137,
        "meta_mean_anomaly": 84.4667,
        "meta_ephemeris_type": 0,
        "meta_classification_type": "U",
        "meta_norad_cat_id": 31183,
        "meta_element_set_no": 999,
        "meta_rev_at_epoch": 97681,
        "meta_bstar": 0.0013516,
        "meta_mean_motion_dot": 5.326e-05,
        "meta_mean_motion_ddot": 0,
        "tle_line1": "1 31183U 99025BJM 25360.44267705  .00005326  00000+0  13516-2 0  9995",
        "tle_line2": "2 31183  99.0384 345.1775 0047805  67.2137  84.4667 14.50562406976812"
      },
      "geometry": {
        "type": "Point",
        "coordinates": [
          4.898500529502072,
          -63.803992677722576
        ]
      }
    },
    {
      "type": "Feature",
      "properties": {
        "norad_id": 31185,
        "name": "FENGYUN 1C DEB",
        "group": "fengyun-1c-debris",
        "lat": -66.81076591742594,
        "lon": 18.551603704277117,
        "alt_km": 911.3180613974246,
        "timestamp": "2025-12-27T05:29:39.483815+00:00",
        "meta_object_name": "FENGYUN 1C DEB",
        "meta_object_id": "1999-025BJP",
        "meta_epoch": "2025-12-03T06:44:56.905152",
        "meta_mean_motion": 14.03019915,
        "meta_eccentricity": 0.0041359,
        "meta_inclination": 98.8321,
        "meta_ra_of_asc_node": 334.0356,
        "meta_arg_of_pericenter": 132.5488,
        "meta_mean_anomaly": 227.9182,
        "meta_ephemeris_type": 0,
        "meta_classification_type": "U",
        "meta_norad_cat_id": 31185,
        "meta_element_set_no": 999,
        "meta_rev_at_epoch": 62204,
        "meta_bstar": 0.0004459,
        "meta_mean_motion_dot": 6.55e-06,
        "meta_mean_motion_ddot": 0,
        "tle_line1": "1 31185U 99025BJP 25337.28121418  .00000655  00000+0  44590-3 0  9990",
        "tle_line2": "2 31185  98.8321 334.0356 0041359 132.5488 227.9182 14.03019915622046"
      },
      "geometry": {
        "type": "Point",
        "coordinates": [
          18.551603704277117,
          -66.81076591742594
        ]
      }
    },
    {
      "type": "Feature",
      "properties": {
        "norad_id": 31186,
        "name": "FENGYUN 1C DEB",
        "group": "fengyun-1c-debris",
        "lat": -80.81436392712915,
        "lon": 7.769884447295346,
        "alt_km": 864.2911866464156,
        "timestamp": "2025-12-27T05:29:39.483825+00:00",
        "meta_object_name": "FENGYUN 1C DEB",
        "meta_object_id": "1999-025BJQ",
        "meta_epoch": "2025-12-25T13:43:17.153184",
        "meta_mean_motion": 14.12928347,
        "meta_eccentricity": 0.0026325,
        "meta_inclination": 99.179,
        "meta_ra_of_asc_node": 275.2512,
        "meta_arg_of_pericenter": 28.2591,
        "meta_mean_anomaly": 97.0962,
        "meta_ephemeris_type": 0,
        "meta_classification_type": "U",
        "meta_norad_cat_id": 31186,
        "meta_element_set_no": 999,
        "meta_rev_at_epoch": 96286,
        "meta_bstar": 0.00048627,
        "meta_mean_motion_dot": 8.62e-06,
        "meta_mean_motion_ddot": 0,
        "tle_line1": "1 31186U 99025BJQ 25359.57172631  .00000862  00000+0  48627-3 0  9995",
        "tle_line2": "2 31186  99.1790 275.2512 0026325  28.2591  97.0962 14.12928347962860"
      },
      "geometry": {
        "type": "Point",
        "coordinates": [
          7.769884447295346,
          -80.81436392712915
        ]
      }
    },
    {
      "type": "Feature",
      "properties": {
        "norad_id": 31187,
        "name": "FENGYUN 1C DEB",
        "group": "fengyun-1c-debris",
        "lat": 69.6083707327519,
        "lon": -159.64204502258423,
        "alt_km": 731.3271483594817,
        "timestamp": "2025-12-27T05:29:39.483836+00:00",
        "meta_object_name": "FENGYUN 1C DEB",
        "meta_object_id": "1999-025BJR",
        "meta_epoch": "2025-12-25T20:15:20.540736",
        "meta_mean_motion": 14.59807134,
        "meta_eccentricity": 0.02189102,
        "meta_inclination": 99.2404,
        "meta_ra_of_asc_node": 224.7876,
        "meta_arg_of_pericenter": 183.8671,
        "meta_mean_anomaly": 176.0844,
        "meta_ephemeris_type": 0,
        "meta_classification_type": "U",
        "meta_norad_cat_id": 31187,
        "meta_element_set_no": 999,
        "meta_rev_at_epoch": 69291,
        "meta_bstar": 0.0026991832,
        "meta_mean_motion_dot": 0.00018046,
        "meta_mean_motion_ddot": 0,
        "tle_line1": "1 31187U 99025BJR 25359.84398774  .00018046  00000+0  26992-2 0  9997",
        "tle_line2": "2 31187  99.2404 224.7876 0218910 183.8671 176.0844 14.59807134692910"
      },
      "geometry": {
        "type": "Point",
        "coordinates": [
          -159.64204502258423,
          69.6083707327519
        ]
      }
    },
    {
      "type": "Feature",
      "properties": {
        "norad_id": 31188,
        "name": "FENGYUN 1C DEB",
        "group": "fengyun-1c-debris",
        "lat": 14.440185567013978,
        "lon": -108.78521926686267,
        "alt_km": 780.5882663821467,
        "timestamp": "2025-12-27T05:29:39.483846+00:00",
        "meta_object_name": "FENGYUN 1C DEB",
        "meta_object_id": "1999-025BJS",
        "meta_epoch": "2025-12-26T03:40:58.068768",
        "meta_mean_motion": 14.23911601,
        "meta_eccentricity": 0.0060962,
        "meta_inclination": 98.7474,
        "meta_ra_of_asc_node": 67.8728,
        "meta_arg_of_pericenter": 210.9622,
        "meta_mean_anomaly": 204.8886,
        "meta_ephemeris_type": 0,
        "meta_classification_type": "U",
        "meta_norad_cat_id": 31188,
        "meta_element_set_no": 999,
        "meta_rev_at_epoch": 96527,
        "meta_bstar": 0.0014628858,
        "meta_mean_motion_dot": 3.375e-05,
        "meta_mean_motion_ddot": 0,
        "tle_line1": "1 31188U 99025BJS 25360.15344987  .00003375  00000+0  14629-2 0  9994",
        "tle_line2": "2 31188  98.7474  67.8728 0060962 210.9622 204.8886 14.23911601965278"
      },
      "geometry": {
        "type": "Point",
        "coordinates": [
          -108.78521926686267,
          14.440185567013978
        ]
      }
    },
    {
      "type": "Feature",
      "properties": {
        "norad_id": 31190,
        "name": "FENGYUN 1C DEB",
        "group": "fengyun-1c-debris",
        "lat": -10.089843698513498,
        "lon": 15.102239207521162,
        "alt_km": 917.5151047129448,
        "timestamp": "2025-12-27T05:29:39.483856+00:00",
        "meta_object_name": "FENGYUN 1C DEB",
        "meta_object_id": "1999-025BJU",
        "meta_epoch": "2025-12-26T07:18:10.338912",
        "meta_mean_motion": 14.03633883,
        "meta_eccentricity": 0.0067717,
        "meta_inclination": 98.8194,
        "meta_ra_of_asc_node": 12.6224,
        "meta_arg_of_pericenter": 221.3183,
        "meta_mean_anomaly": 138.285,
        "meta_ephemeris_type": 0,
        "meta_classification_type": "U",
        "meta_norad_cat_id": 31190,
        "meta_element_set_no": 999,
        "meta_rev_at_epoch": 95737,
        "meta_bstar": 0.00062245,
        "meta_mean_motion_dot": 9.55e-06,
        "meta_mean_motion_ddot": 0,
        "tle_line1": "1 31190U 99025BJU 25360.30428633  .00000955  00000+0  62245-3 0  9994",
        "tle_line2": "2 31190  98.8194  12.6224 0067717 221.3183 138.2850 14.03633883957377"
      },
      "geometry": {
        "type": "Point",
        "coordinates": [
          15.102239207521162,
          -10.089843698513498
        ]
      }
    },
    {
      "type": "Feature",
      "properties": {
        "norad_id": 31191,
        "name": "FENGYUN 1C DEB",
        "group": "fengyun-1c-debris",
        "lat": -2.1630566227833383,
        "lon": -97.15650735236146,
        "alt_km": 818.1617245312564,
        "timestamp": "2025-12-27T05:29:39.483866+00:00",
        "meta_object_name": "FENGYUN 1C DEB",
        "meta_object_id": "1999-025BJV",
        "meta_epoch": "2025-12-26T16:10:15.947616",
        "meta_mean_motion": 14.40820777,
        "meta_eccentricity": 0.00929577,
        "meta_inclination": 98.7827,
        "meta_ra_of_asc_node": 261.939,
        "meta_arg_of_pericenter": 152.9348,
        "meta_mean_anomaly": 207.673,
        "meta_ephemeris_type": 0,
        "meta_classification_type": "U",
        "meta_norad_cat_id": 31191,
        "meta_element_set_no": 999,
        "meta_rev_at_epoch": 98213,
        "meta_bstar": 0.00032358043,
        "meta_mean_motion_dot": 1.042e-05,
        "meta_mean_motion_ddot": 0,
        "tle_line1": "1 31191U 99025BJV 25360.67379569  .00001042  00000+0  32358-3 0  9998",
        "tle_line2": "2 31191  98.7827 261.9390 0092957 152.9348 207.6730 14.40820777982130"
      },
      "geometry": {
        "type": "Point",
        "coordinates": [
          -97.15650735236146,
          -2.1630566227833383
        ]
      }
    }
  ]
}